{
  "norad_id": 39460,
  "name": "SES-8",
  "history": [
    {
      "epoch": "2026-03-28T22:04:53.616864Z",
      "apogee_km": 35795.12577793775,
      "perigee_km": 35778.13759263445,
      "latitude_deg": 0.015355695512059626,
      "longitude_deg": 94.99188375142812,
      "height_km": 35792.34169006698,
      "semi_major_axis_km": 42164.7686852861,
      "eccentricity": 0.00020145,
      "inclination_deg": 0.0216,
      "raan_deg": 252.0978,
      "arg_perigee_deg": 137.6331,
      "mean_anomaly_deg": 222.8103,
      "mean_motion_rev_day": 1.00271654
    },
    {
      "epoch": "2026-03-29T01:30:18.838656Z",
      "apogee_km": 35795.16805647425,
      "perigee_km": 35778.11661970992,
      "latitude_deg": 0.029422737304833368,
      "longitude_deg": 94.98436195621007,
      "height_km": 35785.50346548,
      "semi_major_axis_km": 42164.77933809209,
      "eccentricity": 0.0002022,
      "inclination_deg": 0.0212,
      "raan_deg": 251.4054,
      "arg_perigee_deg": 138.6907,
      "mean_anomaly_deg": 273.9407,
      "mean_motion_rev_day": 1.00271616
    }
  ]
}